NORAD_CAT_ID,OBJECT_NAME,OBJECT_TYPE,EPOCH,MEAN_MOTION,ECCENTRICITY,INCLINATION,RA_OF_ASC_NODE,ARG_OF_PERICENTER,MEAN_ANOMALY,BSTAR,MEAN_MOTION_DOT,MEAN_MOTION_DDOT,TLE_LINE0,TLE_LINE1,TLE_LINE2,SEMIMAJOR_AXIS,PERIOD,APOGEE,PERIGEE,DECAYED
49768.0,STARLINK-3196,PAYLOAD,2024-06-17 22:00:25,15.08839651,0.0001675,53.2182,86.2813,89.8681,270.2503,5.3962e-05,5.71e-06,0.0,0 STARLINK-3196,1 49768U 21115AW  24169.91696725  .00000571  00000-0  53962-4 0  9993,2 49768  53.2182  86.2813 0001675  89.8681 270.2503 15.08839651140600,6917.881,95.438,540.905,538.588,0.0
49768.0,STARLINK-3196,PAYLOAD,2024-06-18 04:21:58,15.08844809,0.0001496,53.2186,85.0907,93.6414,266.4749,4.6593e-05,4.54e-06,0.0,0 STARLINK-3196,1 49768U 21115AW  24170.18192366  .00000454  00000-0  46593-4 0  9998,2 49768  53.2186  85.0907 0001496  93.6414 266.4749 15.08844809140647,6917.866,95.437,540.766,538.696,0.0
49768.0,STARLINK-3196,PAYLOAD,2024-06-19 01:01:58,15.08843707,0.0001406,53.2179,81.2253,89.2316,270.8837,0.00015542,2.187e-05,0.0,0 STARLINK-3196,1 49768U 21115AW  24171.04304220  .00002187  00000-0  15542-3 0  9992,2 49768  53.2179  81.2253 0001406  89.2316 270.8837 15.08843707141884,6917.869,95.437,540.707,538.761,0.0
49768.0,STARLINK-3196,PAYLOAD,2024-06-19 10:34:18,15.08830127,0.0001215,53.2167,79.4412,88.1515,271.9616,0.00030672,4.596e-05,0.0,0 STARLINK-3196,1 49768U 21115AW  24171.44048738  .00004596  00000-0  30672-3 0  9992,2 49768  53.2167  79.4412 0001215  88.1515 271.9616 15.08830127141940,6917.911,95.438,540.616,538.935,0.0
49768.0,STARLINK-3196,PAYLOAD,2024-06-19 21:42:00,15.08835701,0.0001496,53.2185,77.3626,97.1421,262.9741,-7.464e-05,-1.476e-05,0.0,0 STARLINK-3196,1 49768U 21115AW  24171.90417414 -.00001476  00000-0 -74640-4 0  9994,2 49768  53.2185  77.3626 0001496  97.1421 262.9741 15.08835701140908,6917.894,95.438,540.793,538.724,0.0
49768.0,STARLINK-3196,PAYLOAD,2024-06-20 10:25:05,15.08836759,0.0001461,53.219,74.9808,88.0391,272.0768,5.4093e-06,-2.02e-06,0.0,0 STARLINK-3196,1 49768U 21115AW  24172.43409317 -.00000202  00000-0  54093-5 0  9992,2 49768  53.2190  74.9808 0001461  88.0391 272.0768 15.08836759140989,6917.89,95.438,540.766,538.745,0.0
49768.0,STARLINK-3196,PAYLOAD,2024-06-20 21:32:47,15.08845289,0.0001384,53.2186,72.9014,92.0582,268.0569,4.1545e-06,-2.22e-06,0.0,0 STARLINK-3196,1 49768U 21115AW  24172.89776925 -.00000222  00000-0  41545-5 0  9994,2 49768  53.2186  72.9014 0001384  92.0582 268.0569 15.08845289141053,6917.864,95.437,540.687,538.772,0.0
49768.0,STARLINK-3196,PAYLOAD,2024-06-20 23:08:10,15.0884925,0.0001669,53.2197,72.6095,116.2432,243.8732,1.6266e-05,-2.9e-07,0.0,0 STARLINK-3196,1 49768U 21115AW  24172.96400633 -.00000029  00000-0  16266-4 0  9998,2 49768  53.2197  72.6095 0001669 116.2432 243.8732 15.08849250142179,6917.852,95.437,540.872,538.563,0.0
49768.0,STARLINK-3196,PAYLOAD,2024-06-21 03:54:19,15.08852761,0.000143,53.2192,71.7107,83.3159,276.7996,4.7336e-05,4.66e-06,0.0,0 STARLINK-3196,1 49768U 21115AW  24173.16272383  .00000466  00000-0  47336-4 0  9996,2 49768  53.2192  71.7107 0001430  83.3159 276.7996 15.08852761141092,6917.841,95.437,540.696,538.717,0.0
49768.0,STARLINK-3196,PAYLOAD,2024-06-21 21:23:34,15.08834351,0.000166,53.2192,68.4377,78.9773,281.1406,0.000128,1.749e-05,0.0,0 STARLINK-3196,1 49768U 21115AW  24173.89137526  .00001749  00000-0  12800-3 0  9997,2 49768  53.2192  68.4377 0001660  78.9773 281.1406 15.08834351142318,6917.898,95.438,540.911,538.614,0.0
49768.0,STARLINK-3196,PAYLOAD,2024-06-21 22:58:57,15.08836022,0.0001535,53.2195,68.1404,85.3521,274.7647,0.00012339,1.676e-05,0.0,0 STARLINK-3196,1 49768U 21115AW  24173.95761535  .00001676  00000-0  12339-3 0  9993,2 49768  53.2195  68.1404 0001535  85.3521 274.7647 15.08836022141213,6917.893,95.438,540.819,538.696,0.0
49768.0,STARLINK-3196,PAYLOAD,2024-06-22 00:34:20,15.08839526,0.0001429,53.2185,67.8424,85.9822,274.1334,0.00014966,2.095e-05,0.0,0 STARLINK-3196,1 49768U 21115AW  24174.02385247  .00002095  00000-0  14966-3 0  9998,2 49768  53.2185  67.8424 0001429  85.9822 274.1334 15.08839526141222,6917.882,95.438,540.735,538.758,0.0
49768.0,STARLINK-3196,PAYLOAD,2024-06-22 22:49:44,15.08844504,0.000154,53.2191,63.6796,104.8819,255.2344,3.8432e-05,3.24e-06,0.0,0 STARLINK-3196,1 49768U 21115AW  24174.95121284  .00000324  00000-0  38432-4 0  9997,2 49768  53.2191  63.6796 0001540 104.8819 255.2344 15.08844504141364,6917.867,95.437,540.797,538.666,0.0
49768.0,STARLINK-3196,PAYLOAD,2024-06-23 02:00:30,15.08845649,0.0001418,53.2183,63.085,90.0545,270.061,6.3588e-05,7.24e-06,0.0,0 STARLINK-3196,1 49768U 21115AW  24175.08369170  .00000724  00000-0  63588-4 0  9994,2 49768  53.2183  63.0850 0001418  90.0545 270.0610 15.08845649142493,6917.863,95.437,540.709,538.747,0.0
49768.0,STARLINK-3196,PAYLOAD,2024-06-23 22:40:31,15.08846708,0.0001911,53.2192,59.218,65.3147,294.8044,0.00012464,1.696e-05,0.0,0 STARLINK-3196,1 49768U 21115AW  24175.94481035  .00001696  00000-0  12464-3 0  9999,2 49768  53.2192  59.2180 0001911  65.3147 294.8044 15.08846708141511,6917.86,95.437,541.047,538.403,0.0
49768.0,STARLINK-3196,PAYLOAD,2024-06-24 01:51:17,15.08848974,0.000191,53.2195,58.6222,66.4313,293.688,0.00013972,1.937e-05,0.0,0 STARLINK-3196,1 49768U 21115AW  24176.07728810  .00001937  00000-0  13972-3 0  9992,2 49768  53.2195  58.6222 0001910  66.4313 293.6880 15.08848974141534,6917.853,95.437,541.039,538.397,0.0
49768.0,STARLINK-3196,PAYLOAD,2024-06-24 20:55:56,15.08838488,0.0001746,53.2186,55.0523,70.8821,289.236,2.5399e-05,1.16e-06,0.0,0 STARLINK-3196,1 49768U 21115AW  24176.87217688  .00000116  00000-0  25399-4 0  9991,2 49768  53.2186  55.0523 0001746  70.8821 289.2360 15.08838488142768,6917.885,95.438,540.958,538.542,0.0
49768.0,STARLINK-3196,PAYLOAD,2024-06-24 22:31:19,15.08840243,0.0001623,53.2178,54.7603,75.7002,284.417,3.0819e-05,2.02e-06,0.0,0 STARLINK-3196,1 49768U 21115AW  24176.93841544  .00000202  00000-0  30819-4 0  9991,2 49768  53.2178  54.7603 0001623  75.7002 284.4170 15.08840243141669,6917.88,95.438,540.867,538.622,0.0
49768.0,STARLINK-3196,PAYLOAD,2024-06-25 20:46:42,15.08842635,0.0001682,53.2184,50.5879,93.3505,266.768,7.8375e-05,9.6e-06,0.0,0 STARLINK-3196,1 49768U 21115AW  24177.86577017  .00000960  00000-0  78375-4 0  9995,2 49768  53.2184  50.5879 0001682  93.3505 266.7680 15.08842635142919,6917.872,95.437,540.901,538.574,0.0
49768.0,STARLINK-3196,PAYLOAD,2024-06-25 22:22:05,15.08843539,0.0001691,53.2185,50.2907,93.0984,267.0202,8.3704e-05,1.044e-05,0.0,0 STARLINK-3196,1 49768U 21115AW  24177.93200940  .00001044  00000-0  83704-4 0  9997,2 49768  53.2185  50.2907 0001691  93.0984 267.0202 15.08843539141813,6917.87,95.437,540.904,538.565,0.0
49768.0,STARLINK-3196,PAYLOAD,2024-06-26 22:12:53,15.08834806,0.0001711,53.2188,45.8405,91.2384,268.8804,5.08e-05,5.2e-06,0.0,0 STARLINK-3196,1 49768U 21115AW  24178.92561879  .00000520  00000-0  50800-4 0  9997,2 49768  53.2188  45.8405 0001711  91.2384 268.8804 15.08834806141966,6917.896,95.438,540.945,538.578,0.0
49768.0,STARLINK-3196,PAYLOAD,2024-06-27 20:28:17,15.0883798,0.0001412,53.2182,41.6776,93.9821,266.1332,-4.7837e-05,-1.049e-05,0.0,0 STARLINK-3196,1 49768U 21115AW  24179.85298288 -.00001049  00000-0 -47837-4 0  9996,2 49768  53.2182  41.6776 0001412  93.9821 266.1332 15.08837980142108,6917.887,95.438,540.728,538.775,0.0
49768.0,STARLINK-3196,PAYLOAD,2024-06-27 23:39:03,15.08844031,0.0001475,53.2189,41.0867,107.4935,252.6218,2.6932e-05,1.41e-06,0.0,0 STARLINK-3196,1 49768U 21115AW  24179.98545629  .00000141  00000-0  26932-4 0  9997,2 49768  53.2189  41.0867 0001475 107.4935 252.6218 15.08844031143239,6917.868,95.437,540.753,538.713,0.0
49768.0,STARLINK-3196,PAYLOAD,2024-06-28 07:35:59,15.08844467,0.0001218,53.2175,39.5945,79.1654,280.9475,1.7089e-05,-1.6e-07,0.0,0 STARLINK-3196,1 49768U 21115AW  24180.31665578 -.00000016  00000-0  17089-4 0  9997,2 49768  53.2175  39.5945 0001218  79.1654 280.9475 15.08844467142175,6917.867,95.437,540.574,538.889,0.0
49768.0,STARLINK-3196,PAYLOAD,2024-06-28 20:19:04,15.08837654,0.000136,53.2178,37.2197,90.3947,269.7201,0.00013016,1.784e-05,0.0,0 STARLINK-3196,1 49768U 21115AW  24180.84658012  .00001784  00000-0  13016-3 0  9997,2 49768  53.2178  37.2197 0001360  90.3947 269.7201 15.08837654143364,6917.888,95.438,540.693,538.812,0.0
49768.0,STARLINK-3196,PAYLOAD,2024-06-28 21:54:26,15.08849856,0.0001143,53.2172,36.9216,104.426,255.6859,0.00022322,3.267e-05,0.0,0 STARLINK-3196,1 49768U 21115AW  24180.91280876  .00003267  00000-0  22322-3 0  9992,2 49768  53.2172  36.9216 0001143 104.4260 255.6859 15.08849856142268,6917.85,95.437,540.506,538.925,0.0
49768.0,STARLINK-3196,PAYLOAD,2024-06-29 13:48:19,15.08831778,0.0001127,53.2165,33.9451,94.1564,265.9557,8.8451e-05,1.12e-05,0.0,0 STARLINK-3196,1 49768U 21115AW  24181.57522709  .00001120  00000-0  88451-4 0  9991,2 49768  53.2165  33.9451 0001127  94.1564 265.9557 15.08831778143479,6917.906,95.438,540.55,538.991,0.0
49768.0,STARLINK-3196,PAYLOAD,2024-06-29 21:45:15,15.08840509,0.0001127,53.2176,32.4593,88.3385,271.7737,2.9097e-05,1.75e-06,0.0,0 STARLINK-3196,1 49768U 21115AW  24181.90642468  .00000175  00000-0  29097-4 0  9993,2 49768  53.2176  32.4593 0001127  88.3385 271.7737 15.08840509142418,6917.879,95.438,540.523,538.964,0.0
49768.0,STARLINK-3196,PAYLOAD,2024-06-29 23:20:38,15.08843081,0.0001168,53.2179,32.1615,85.5004,274.6122,5.0777e-05,5.2e-06,0.0,0 STARLINK-3196,1 49768U 21115AW  24181.97266259  .00000520  00000-0  50777-4 0  9993,2 49768  53.2179  32.1615 0001168  85.5004 274.6122 15.08843081143537,6917.871,95.437,540.544,538.928,0.0
49768.0,STARLINK-3196,PAYLOAD,2024-06-30 20:00:38,15.08844319,0.0001012,53.2175,28.2949,96.717,263.3937,0.00012885,1.764e-05,0.0,0 STARLINK-3196,1 49768U 21115AW  24182.83377784  .00001764  00000-0  12885-3 0  9993,2 49768  53.2175  28.2949 0001012  96.7170 263.3937 15.08844319142550,6917.867,95.437,540.432,539.032,0.0
